NORAD_CAT_ID,OBJECT_NAME,OBJECT_TYPE,EPOCH,MEAN_MOTION,ECCENTRICITY,INCLINATION,RA_OF_ASC_NODE,ARG_OF_PERICENTER,MEAN_ANOMALY,BSTAR,MEAN_MOTION_DOT,MEAN_MOTION_DDOT,TLE_LINE0,TLE_LINE1,TLE_LINE2,SEMIMAJOR_AXIS,PERIOD,APOGEE,PERIGEE,DECAYED
54058.0,STARLINK-5167,PAYLOAD,2023-09-25 09:27:26,15.08845054,0.0001491,53.2181,47.7545,90.0882,270.0281,0.00010262,1.346e-05,0.0,0 STARLINK-5167,1 54058U 22136H   23268.39405454  .00001346  00000-0  10262-3 0  9999,2 54058  53.2181  47.7545 0001491  90.0882 270.0281 15.08845054 52016,6917.865,95.437,540.761,538.698,0.0
54058.0,STARLINK-5167,PAYLOAD,2023-09-25 12:38:12,15.08844168,0.0001372,53.2163,47.1597,88.1575,271.9575,0.00016909,2.404e-05,0.0,0 STARLINK-5167,1 54058U 22136H   23268.52653452  .00002404  00000-0  16909-3 0  9997,2 54058  53.2163  47.1597 0001372  88.1575 271.9575 15.08844168 51551,6917.868,95.437,540.682,538.784,0.0
54058.0,STARLINK-5167,PAYLOAD,2023-09-25 15:48:58,15.08849426,0.0001299,53.216,46.5638,96.6784,263.4356,0.00024182,3.564e-05,0.0,0 STARLINK-5167,1 54058U 22136H   23268.65901131  .00003564  00000-0  24182-3 0  9991,2 54058  53.2160  46.5638 0001299  96.6784 263.4356 15.08849426 51578,6917.852,95.437,540.615,538.818,0.0
54058.0,STARLINK-5167,PAYLOAD,2023-09-26 09:18:13,15.08835097,0.0001497,53.218,43.2943,89.478,270.6384,2.8713e-05,1.69e-06,0.0,0 STARLINK-5167,1 54058U 22136H   23269.38766142  .00000169  00000-0  28713-4 0  9996,2 54058  53.2180  43.2943 0001497  89.4780 270.6384 15.08835097 52165,6917.895,95.438,540.796,538.725,0.0
54058.0,STARLINK-5167,PAYLOAD,2023-09-26 14:04:23,15.08832633,0.0001413,53.2179,42.4018,98.2163,261.8989,-1.3878e-05,-5.09e-06,0.0,0 STARLINK-5167,1 54058U 22136H   23269.58638286 -.00000509  00000-0 -13878-4 0  9991,2 54058  53.2179  42.4018 0001413  98.2163 261.8989 15.08832633 51714,6917.903,95.438,540.745,538.79,0.0
54058.0,STARLINK-5167,PAYLOAD,2023-09-26 15:39:46,15.08833597,0.0001407,53.2175,42.1023,92.2274,267.8879,-2.2879e-05,-6.52e-06,0.0,0 STARLINK-5167,1 54058U 22136H   23269.65262263 -.00000652  00000-0 -22879-4 0  9997,2 54058  53.2175  42.1023 0001407  92.2274 267.8879 15.08833597 51728,6917.9,95.438,540.738,538.792,0.0
54058.0,STARLINK-5167,PAYLOAD,2023-09-27 12:19:47,15.08841545,0.0001418,53.2176,38.2373,99.8396,260.2756,8.6828e-05,1.094e-05,0.0,0 STARLINK-5167,1 54058U 22136H   23270.51374030  .00001094  00000-0  86828-4 0  9993,2 54058  53.2176  38.2373 0001418  99.8396 260.2756 15.08841545 51850,6917.876,95.437,540.722,538.76,0.0
54058.0,STARLINK-5167,PAYLOAD,2023-09-27 15:30:33,15.08847526,0.0001369,53.2177,37.6451,92.2706,267.8443,0.00020308,2.946e-05,0.0,0 STARLINK-5167,1 54058U 22136H   23270.64621780  .00002946  00000-0  20308-3 0  9991,2 54058  53.2177  37.6451 0001369  92.2706 267.8443 15.08847526 52355,6917.857,95.437,540.669,538.775,0.0
54058.0,STARLINK-5167,PAYLOAD,2023-09-28 12:10:34,15.08837007,0.000136,53.2188,33.7811,97.2136,262.901,0.00018398,2.641e-05,0.0,0 STARLINK-5167,1 54058U 22136H   23271.50734442  .00002641  00000-0  18398-3 0  9995,2 54058  53.2188  33.7811 0001360  97.2136 262.9010 15.08837007 52480,6917.89,95.438,540.695,538.814,0.0
54058.0,STARLINK-5167,PAYLOAD,2023-09-28 13:45:57,15.08838007,0.0001369,53.2188,33.4838,96.5591,263.5557,0.00018358,2.635e-05,0.0,0 STARLINK-5167,1 54058U 22136H   23271.57358385  .00002635  00000-0  18358-3 0  9999,2 54058  53.2188  33.4838 0001369  96.5591 263.5557 15.08838007 52015,6917.886,95.438,540.699,538.804,0.0
54058.0,STARLINK-5167,PAYLOAD,2023-09-28 15:21:20,15.08839957,0.0001365,53.2189,33.1865,96.0975,264.0173,0.00020003,2.897e-05,0.0,0 STARLINK-5167,1 54058U 22136H   23271.63982265  .00002897  00000-0  20003-3 0  9996,2 54058  53.2189  33.1865 0001365  96.0975 264.0173 15.08839957 52026,6917.881,95.438,540.69,538.801,0.0
54058.0,STARLINK-5167,PAYLOAD,2023-09-29 12:01:21,15.08839786,0.0001285,53.2196,29.3206,95.7382,264.3757,1.5026e-05,-4.9e-07,0.0,0 STARLINK-5167,1 54058U 22136H   23272.50094713 -.00000049  00000-0  15026-4 0  9993,2 54058  53.2196  29.3206 0001285  95.7382 264.3757 15.08839786 52154,6917.881,95.438,540.635,538.857,0.0
54058.0,STARLINK-5167,PAYLOAD,2023-09-29 15:12:07,15.08845341,0.0001502,53.22,28.7238,88.0723,272.0441,6.1089e-05,6.85e-06,0.0,0 STARLINK-5167,1 54058U 22136H   23272.63342321  .00000685  00000-0  61089-4 0  9993,2 54058  53.2200  28.7238 0001502  88.0723 272.0441 15.08845341 52659,6917.864,95.437,540.768,538.69,0.0
54058.0,STARLINK-5167,PAYLOAD,2023-09-30 00:44:26,15.08836054,0.0001166,53.2189,26.9434,103.4889,256.6233,-1.4553e-05,-5.19e-06,0.0,0 STARLINK-5167,1 54058U 22136H   23273.03086325 -.00000519  00000-0 -14553-4 0  9999,2 54058  53.2189  26.9434 0001166 103.4889 256.6233 15.08836054 52236,6917.892,95.438,540.564,538.951,0.0
54058.0,STARLINK-5167,PAYLOAD,2023-09-30 08:41:22,15.08836542,0.0001285,53.2193,25.4537,97.1201,262.9937,-2.2781e-05,-6.5e-06,0.0,0 STARLINK-5167,1 54058U 22136H   23273.36206425 -.00000650  00000-0 -22781-4 0  9998,2 54058  53.2193  25.4537 0001285  97.1201 262.9937 15.08836542 52769,6917.891,95.438,540.645,538.867,0.0
54058.0,STARLINK-5167,PAYLOAD,2023-09-30 16:38:17,15.08854132,0.0001481,53.2193,23.966,90.2618,269.8544,0.00024342,3.59e-05,0.0,0 STARLINK-5167,1 54058U 22136H   23273.69325555  .00003590  00000-0  24342-3 0  9998,2 54058  53.2193  23.9660 0001481  90.2618 269.8544 15.08854132 52814,6917.837,95.437,540.727,538.678,0.0
54058.0,STARLINK-5167,PAYLOAD,2023-10-01 00:35:13,15.08842841,0.0001615,53.219,22.4764,79.9825,280.1349,2.5138e-05,1.12e-06,0.0,0 STARLINK-5167,1 54058U 22136H   23274.02446041  .00000112  00000-0  25138-4 0  9992,2 54058  53.2190  22.4764 0001615  79.9825 280.1349 15.08842841 52861,6917.872,95.437,540.854,538.619,0.0
54058.0,STARLINK-5167,PAYLOAD,2023-10-01 13:18:18,15.08841029,0.0001365,53.2191,20.0967,89.1106,271.0043,-1.7162e-05,-5.61e-06,0.0,0 STARLINK-5167,1 54058U 22136H   23274.55438255 -.00000561  00000-0 -17162-4 0  9996,2 54058  53.2191  20.0967 0001365  89.1106 271.0043 15.08841029 52461,6917.877,95.437,540.687,538.798,0.0
54058.0,STARLINK-5167,PAYLOAD,2023-10-01 16:29:04,15.08843621,0.000147,53.2186,19.5027,84.4638,275.6522,4.9151e-05,4.94e-06,0.0,0 STARLINK-5167,1 54058U 22136H   23274.68686158  .00000494  00000-0  49151-4 0  9993,2 54058  53.2186  19.5027 0001470  84.4638 275.6522 15.08843621 52484,6917.869,95.437,540.751,538.717,0.0
54058.0,STARLINK-5167,PAYLOAD,2023-10-02 00:26:00,15.08839337,0.0001418,53.2184,18.0174,83.0431,277.0722,-4.3284e-05,-9.77e-06,0.0,0 STARLINK-5167,1 54058U 22136H   23275.01806401 -.00000977  00000-0 -43284-4 0  9995,2 54058  53.2184  18.0174 0001418  83.0431 277.0722 15.08839337 53014,6917.882,95.438,540.728,538.766,0.0
54058.0,STARLINK-5167,PAYLOAD,2023-10-02 13:09:05,15.08850941,0.0001423,53.2186,15.6382,92.8335,267.282,6.6766e-06,-1.82e-06,0.0,0 STARLINK-5167,1 54058U 22136H   23275.54798076 -.00000182  00000-0  66766-5 0  9999,2 54058  53.2186  15.6382 0001423  92.8335 267.2820 15.08850941 53099,6917.847,95.437,540.696,538.728,0.0
54058.0,STARLINK-5167,PAYLOAD,2023-10-03 12:59:52,15.0884707,0.0001509,53.2183,11.1785,85.3502,274.7662,0.00017643,2.522e-05,0.0,0 STARLINK-5167,1 54058U 22136H   23276.54158346  .00002522  00000-0  17643-3 0  9997,2 54058  53.2183  11.1785 0001509  85.3502 274.7662 15.08847070 53245,6917.859,95.437,540.768,538.68,0.0
54058.0,STARLINK-5167,PAYLOAD,2023-10-03 17:46:01,15.08853857,0.0001537,53.2191,10.2867,85.2396,274.8771,0.00016525,2.344e-05,0.0,0 STARLINK-5167,1 54058U 22136H   23276.74029409  .00002344  00000-0  16525-3 0  9996,2 54058  53.2191  10.2867 0001537  85.2396 274.8771 15.08853857 53271,6917.838,95.437,540.766,538.64,0.0
54058.0,STARLINK-5167,PAYLOAD,2023-10-04 11:15:16,15.08843016,0.0001706,53.2181,7.0149,95.7167,264.402,8.5777e-05,1.077e-05,0.0,0 STARLINK-5167,1 54058U 22136H   23277.46894376  .00001077  00000-0  85777-4 0  9997,2 54058  53.2181   7.0149 0001706  95.7167 264.4020 15.08843016 53387,6917.871,95.437,540.916,538.556,0.0
54058.0,STARLINK-5167,PAYLOAD,2023-10-04 12:50:39,15.08849969,0.0001505,53.2186,6.7197,87.8711,272.2453,4.9385e-05,4.98e-06,0.0,0 STARLINK-5167,1 54058U 22136H   23277.53517890  .00000498  00000-0  49385-4 0  9999,2 54058  53.2186   6.7197 0001505  87.8711 272.2453 15.08849969 52913,6917.85,95.437,540.756,538.674,0.0
54058.0,STARLINK-5167,PAYLOAD,2023-10-04 17:36:48,15.08854519,0.0001929,53.2174,5.8257,94.9535,265.1678,0.00039454,5.999e-05,0.0,0 STARLINK-5167,1 54058U 22136H   23277.73389850  .00005999  00000-0  39454-3 0  9990,2 54058  53.2174   5.8257 0001929  94.9535 265.1678 15.08854519 53424,6917.836,95.437,541.035,538.367,0.0
54058.0,STARLINK-5167,PAYLOAD,2023-10-05 11:06:03,15.08841692,0.0001728,53.2187,2.5571,87.4279,272.6911,-3.9134e-05,-9.11e-06,0.0,0 STARLINK-5167,1 54058U 22136H   23278.46254308 -.00000911  00000-0 -39134-4 0  9997,2 54058  53.2187   2.5571 0001728  87.4279 272.6911 15.08841692 53533,6917.875,95.437,540.936,538.545,0.0
54058.0,STARLINK-5167,PAYLOAD,2023-10-05 17:27:35,15.08856502,0.0001517,53.2179,1.3663,94.7274,265.3892,0.00019339,2.793e-05,0.0,0 STARLINK-5167,1 54058U 22136H   23278.72749441  .00002793  00000-0  19339-3 0  9995,2 54058  53.2179   1.3663 0001517  94.7274 265.3892 15.08856502 53572,6917.83,95.437,540.744,538.646,0.0
54058.0,STARLINK-5167,PAYLOAD,2023-10-06 10:56:50,15.08838497,0.0001747,53.2191,358.0958,101.3205,258.7984,-1.8314e-05,-5.8e-06,0.0,0 STARLINK-5167,1 54058U 22136H   23279.45614583 -.00000580  00000-0 -18314-4 0  9991,2 54058  53.2191 358.0958 0001747 101.3205 258.7984 15.08838497 53682,6917.885,95.438,540.959,538.541,0.0
54058.0,STARLINK-5167,PAYLOAD,2023-10-06 12:32:14,15.08839901,0.0001658,53.2199,357.8046,96.1055,264.0126,5.5531e-05,5.96e-06,0.0,0 STARLINK-5167,1 54058U 22136H   23279.52238813  .00000596  00000-0  55531-4 0  9994,2 54058  53.2199 357.8046 0001658  96.1055 264.0126 15.08839901 53218,6917.881,95.438,540.893,538.599,0.0
